ADRAS-J                 
1 58992U 24034A   24164.48953893  .00004212  00000+0  39334-3 0  9995
2 58992  98.2123 137.2934 0046225  65.7501 294.8537 14.93954582 17165
